{"type": "FeatureCollection", "features": [ {"type": "Feature", "properties": {"norad_id": 44543, "name": "BEIDOU-3 M23 (C45)", "group": "beidou", "lat": -52.083881896019996, "lon": 121.59063900822696, "alt_km": 21537.529556430985, "timestamp": "2025-12-26T08:37:54.845910+00:00", "meta": {"OBJECT_NAME": "BEIDOU-3 M23 (C45)", "OBJECT_ID": "2019-061B", "EPOCH": "2025-12-26T04:09:30.101184", "MEAN_MOTION": 1.86227478, "ECCENTRICITY": 0.0005995, "INCLINATION": 54.3995, "RA_OF_ASC_NODE": 188.531, "ARG_OF_PERICENTER": 25.8567, "MEAN_ANOMALY": 133.188, "EPHEMERIS_TYPE": 0, "CLASSIFICATION_TYPE": "U", "NORAD_CAT_ID": 44543, "ELEMENT_SET_NO": 999, "REV_AT_EPOCH": 4257, "BSTAR": 0, "MEAN_MOTION_DOT": 1.19e-06, "MEAN_MOTION_DDOT": 0}, "tle": {"line1": "1 44543U 19061B   25360.17326506  .00000119  00000+0  00000+0 0  9992", "line2": "2 44543  54.3995 188.5310 0005995  25.8567 133.1880  1.86227478 42571"}}, "geometry": {"type": "Point", "coordinates": [121.59063900822696, -52.083881896019996]}}, {"type": "Feature", "properties": {"norad_id": 44793, "name": "BEIDOU-3 M22 (C44)", "group": "beidou", "lat": 45.29307646511649, "lon": 78.91134597955921, "alt_km": 21523.839882317105, "timestamp": "2025-12-26T08:37:54.845921+00:00", "meta": {"OBJECT_NAME": "BEIDOU-3 M22 (C44)", "OBJECT_ID": "2019-078A", "EPOCH": "2025-12-22T23:04:03.320256", "MEAN_MOTION": 1.86232206, "ECCENTRICITY": 0.00060944, "INCLINATION": 54.0989, "RA_OF_ASC_NODE": 306.0279, "ARG_OF_PERICENTER": 24.0205, "MEAN_ANOMALY": 336.0117, "EPHEMERIS_TYPE": 0, "CLASSIFICATION_TYPE": "U", "NORAD_CAT_ID": 44793, "ELEMENT_SET_NO": 999, "REV_AT_EPOCH": 4136, "BSTAR": 0, "MEAN_MOTION_DOT": -5.4e-07, "MEAN_MOTION_DDOT": 0}, "tle": {"line1": "1 44793U 19078A   25356.96114954 -.00000054  00000+0  00000+0 0  9990", "line2": "2 44793  54.0989 306.0279 0006094  24.0205 336.0117  1.86232206 41368"}}, "geometry": {"type": "Point", "coordinates": [78.91134597955921, 45.29307646511649]}}, {"type": "Feature", "properties": {"norad_id": 44794, "name": "BEIDOU-3 M21 (C43)", "group": "beidou", "lat": 20.84100676995909, "lon": -38.13443236554919, "alt_km": 21514.17759330059, "timestamp": "2025-12-26T08:37:54.845933+00:00", "meta": {"OBJECT_NAME": "BEIDOU-3 M21 (C43)", "OBJECT_ID": "2019-078B", "EPOCH": "2025-12-25T05:55:32.884896", "MEAN_MOTION": 1.86227898, "ECCENTRICITY": 0.0004304, "INCLINATION": 54.0703, "RA_OF_ASC_NODE": 305.9129, "ARG_OF_PERICENTER": 12.6939, "MEAN_ANOMALY": 347.3266, "EPHEMERIS_TYPE": 0, "CLASSIFICATION_TYPE": "U", "NORAD_CAT_ID": 44794, "ELEMENT_SET_NO": 999, "REV_AT_EPOCH": 4141, "BSTAR": 0, "MEAN_MOTION_DOT": -5.3e-07, "MEAN_MOTION_DDOT": 0}, "tle": {"line1": "1 44794U 19078B   25359.24690839 -.00000053  00000+0  00000+0 0  9995", "line2": "2 44794  54.0703 305.9129 0004304  12.6939 347.3266  1.86227898 41411"}}, "geometry": {"type": "Point", "coordinates": [-38.13443236554919, 20.84100676995909]}}, {"type": "Feature", "properties": {"norad_id": 44864, "name": "BEIDOU-3 M19 (C41)", "group": "beidou", "lat": -33.68589104436407, "lon": -85.20701673163285, "alt_km": 21509.208269689374, "timestamp": "2025-12-26T08:37:54.845944+00:00", "meta": {"OBJECT_NAME": "BEIDOU-3 M19 (C41)", "OBJECT_ID": "2019-090A", "EPOCH": "2025-12-24T13:05:33.212256", "MEAN_MOTION": 1.86231537, "ECCENTRICITY": 0.00184016, "INCLINATION": 56.4026, "RA_OF_ASC_NODE": 68.5704, "ARG_OF_PERICENTER": 285.2046, "MEAN_ANOMALY": 160.4424, "EPHEMERIS_TYPE": 0, "CLASSIFICATION_TYPE": "U", "NORAD_CAT_ID": 44864, "ELEMENT_SET_NO": 999, "REV_AT_EPOCH": 4098, "BSTAR": 0, "MEAN_MOTION_DOT": -2.5e-07, "MEAN_MOTION_DDOT": 0}, "tle": {"line1": "1 44864U 19090A   25358.54552329 -.00000025  00000+0  00000+0 0  9999", "line2": "2 44864  56.4026  68.5704 0018401 285.2046 160.4424  1.86231537 40980"}}, "geometry": {"type": "Point", "coordinates": [-85.20701673163285, -33.68589104436407]}}, {"type": "Feature", "properties": {"norad_id": 44865, "name": "BEIDOU-3 M20 (C42)", "group": "beidou", "lat": -38.57104631568519, "lon": 36.593999948178315, "alt_km": 21490.715002722583, "timestamp": "2025-12-26T08:37:54.845955+00:00", "meta": {"OBJECT_NAME": "BEIDOU-3 M20 (C42)", "OBJECT_ID": "2019-090B", "EPOCH": "2025-12-24T09:14:17.322144", "MEAN_MOTION": 1.86231611, "ECCENTRICITY": 0.00155264, "INCLINATION": 56.4041, "RA_OF_ASC_NODE": 68.61, "ARG_OF_PERICENTER": 297.3537, "MEAN_ANOMALY": 130.233, "EPHEMERIS_TYPE": 0, "CLASSIFICATION_TYPE": "U", "NORAD_CAT_ID": 44865, "ELEMENT_SET_NO": 999, "REV_AT_EPOCH": 4096, "BSTAR": 0, "MEAN_MOTION_DOT": -2.4e-07, "MEAN_MOTION_DDOT": 0}, "tle": {"line1": "1 44865U 19090B   25358.38492271 -.00000024  00000+0  00000+0 0  9990", "line2": "2 44865  56.4041  68.6100 0015526 297.3537 130.2330  1.86231611 40965"}}, "geometry": {"type": "Point", "coordinates": [36.593999948178315, -38.57104631568519]}}, {"type": "Feature", "properties": {"norad_id": 45344, "name": "BEIDOU-3 G2 (C60)", "group": "beidou", "lat": -2.503192622780868, "lon": -55.373775729137755, "alt_km": 35778.02661559713, "timestamp": "2025-12-26T08:37:54.845967+00:00", "meta": {"OBJECT_NAME": "BEIDOU-3 G2 (C60)", "OBJECT_ID": "2020-017A", "EPOCH": "2025-12-25T19:22:19.403328", "MEAN_MOTION": 1.00272136, "ECCENTRICITY": 0.00021357, "INCLINATION": 2.5199, "RA_OF_ASC_NODE": 44.1352, "ARG_OF_PERICENTER": 237.2485, "MEAN_ANOMALY": 183.8049, "EPHEMERIS_TYPE": 0, "CLASSIFICATION_TYPE": "U", "NORAD_CAT_ID": 45344, "ELEMENT_SET_NO": 999, "REV_AT_EPOCH": 2152, "BSTAR": 0, "MEAN_MOTION_DOT": -1.2e-06, "MEAN_MOTION_DDOT": 0}, "tle": {"line1": "1 45344U 20017A   25359.80716902 -.00000120  00000+0  00000+0 0  9999", "line2": "2 45344   2.5199  44.1352 0002135 237.2485 183.8049  1.00272136 21524"}}, "geometry": {"type": "Point", "coordinates": [-55.373775729137755, -2.503192622780868]}}, {"type": "Feature", "properties": {"norad_id": 45807, "name": "BEIDOU-3 G3 (C61)", "group": "beidou", "lat": -2.0331743075760347, "lon": -24.959931133992114, "alt_km": 35766.639752115, "timestamp": "2025-12-26T08:37:54.845978+00:00", "meta": {"OBJECT_NAME": "BEIDOU-3 G3 (C61)", "OBJECT_ID": "2020-040A", "EPOCH": "2025-12-25T22:09:08.222976", "MEAN_MOTION": 1.00267109, "ECCENTRICITY": 0.00065911, "INCLINATION": 2.021, "RA_OF_ASC_NODE": 66.691, "ARG_OF_PERICENTER": 308.6704, "MEAN_ANOMALY": 162.1167, "EPHEMERIS_TYPE": 0, "CLASSIFICATION_TYPE": "U", "NORAD_CAT_ID": 45807, "ELEMENT_SET_NO": 999, "REV_AT_EPOCH": 2033, "BSTAR": 0, "MEAN_MOTION_DOT": -3.32e-06, "MEAN_MOTION_DDOT": 0}, "tle": {"line1": "1 45807U 20040A   25359.92301184 -.00000332  00000+0  00000+0 0  9999", "line2": "2 45807   2.0210  66.6910 0006591 308.6704 162.1167  1.00267109 20336"}}, "geometry": {"type": "Point", "coordinates": [-24.959931133992114, -2.0331743075760347]}}, {"type": "Feature", "properties": {"norad_id": 56564, "name": "BEIDOU-3 G4 (C62)", "group": "beidou", "lat": 0.7831020129267816, "lon": 24.6107075063752, "alt_km": 35795.36200015563, "timestamp": "2025-12-26T08:37:54.845990+00:00", "meta": {"OBJECT_NAME": "BEIDOU-3 G4 (C62)", "OBJECT_ID": "2023-066A", "EPOCH": "2025-12-26T05:07:38.649792", "MEAN_MOTION": 1.0027069, "ECCENTRICITY": 0.0002533, "INCLINATION": 0.787, "RA_OF_ASC_NODE": 303.1041, "ARG_OF_PERICENTER": 230.0794, "MEAN_ANOMALY": 158.741, "EPHEMERIS_TYPE": 0, "CLASSIFICATION_TYPE": "U", "NORAD_CAT_ID": 56564, "ELEMENT_SET_NO": 999, "REV_AT_EPOCH": 966, "BSTAR": 0, "MEAN_MOTION_DOT": -8.9e-07, "MEAN_MOTION_DDOT": 0}, "tle": {"line1": "1 56564U 23066A   25360.21364178 -.00000089  00000+0  00000+0 0  9997", "line2": "2 56564   0.7870 303.1041 0002533 230.0794 158.7410  1.00270690  9662"}}, "geometry": {"type": "Point", "coordinates": [24.6107075063752, 0.7831020129267816]}}, {"type": "Feature", "properties": {"norad_id": 58654, "name": "BEIDOU-3 M28 (C50)", "group": "beidou", "lat": -21.489035696620135, "lon": 52.5241656484591, "alt_km": 21526.780380274366, "timestamp": "2025-12-26T08:37:54.846002+00:00", "meta": {"OBJECT_NAME": "BEIDOU-3 M28 (C50)", "OBJECT_ID": "2023-207A", "EPOCH": "2025-12-24T18:54:51.717312", "MEAN_MOTION": 1.86229668, "ECCENTRICITY": 0.0002918, "INCLINATION": 55.5946, "RA_OF_ASC_NODE": 68.1934, "ARG_OF_PERICENTER": 275.8619, "MEAN_ANOMALY": 84.1589, "EPHEMERIS_TYPE": 0, "CLASSIFICATION_TYPE": "U", "NORAD_CAT_ID": 58654, "ELEMENT_SET_NO": 999, "REV_AT_EPOCH": 1359, "BSTAR": 0, "MEAN_MOTION_DOT": -2.7e-07, "MEAN_MOTION_DDOT": 0}, "tle": {"line1": "1 58654U 23207A   25358.78809858 -.00000027  00000+0  00000+0 0  9996", "line2": "2 58654  55.5946  68.1934 0002918 275.8619  84.1589  1.86229668 13594"}}, "geometry": {"type": "Point", "coordinates": [52.5241656484591, -21.489035696620135]}}, {"type": "Feature", "properties": {"norad_id": 58655, "name": "BEIDOU-3 M26 (C48)", "group": "beidou", "lat": 51.13132096926786, "lon": -169.97540664449275, "alt_km": 21532.593514364416, "timestamp": "2025-12-26T08:37:54.846013+00:00", "meta": {"OBJECT_NAME": "BEIDOU-3 M26 (C48)", "OBJECT_ID": "2023-207B", "EPOCH": "2025-12-26T04:42:57.397824", "MEAN_MOTION": 1.86231148, "ECCENTRICITY": 0.0004271, "INCLINATION": 55.5979, "RA_OF_ASC_NODE": 68.1319, "ARG_OF_PERICENTER": 261.8376, "MEAN_ANOMALY": 98.1658, "EPHEMERIS_TYPE": 0, "CLASSIFICATION_TYPE": "U", "NORAD_CAT_ID": 58655, "ELEMENT_SET_NO": 999, "REV_AT_EPOCH": 1360, "BSTAR": 0, "MEAN_MOTION_DOT": -3.2e-07, "MEAN_MOTION_DDOT": 0}, "tle": {"line1": "1 58655U 23207B   25360.19649766 -.00000032  00000+0  00000+0 0  9991", "line2": "2 58655  55.5979  68.1319 0004271 261.8376  98.1658  1.86231148 13607"}}, "geometry": {"type": "Point", "coordinates": [-169.97540664449275, 51.13132096926786]}}]}